[{"OBJECT_NAME":"ONEWEB-0215","OBJECT_ID":"2021-045AK","EPOCH":"2026-03-09T14:55:02.250912","MEAN_MOTION":13.1554787,"ECCENTRICITY":0.0002065,"INCLINATION":87.8948,"RA_OF_ASC_NODE":279.0524,"ARG_OF_PERICENTER":109.2253,"MEAN_ANOMALY":250.91,"EPHEMERIS_TYPE":0,"CLASSIFICATION_TYPE":"U","NORAD_CAT_ID":48800,"ELEMENT_SET_NO":999,"REV_AT_EPOCH":23120,"BSTAR":-7.7789e-5,"MEAN_MOTION_DOT":-1.6e-7,"MEAN_MOTION_DDOT":0},{"OBJECT_NAME":"OBJECT B","OBJECT_ID":"2021-014B","EPOCH":"2026-03-09T23:02:30.524928","MEAN_MOTION":13.44206216,"ECCENTRICITY":0.01624293,"INCLINATION":63.4043,"RA_OF_ASC_NODE":104.4583,"ARG_OF_PERICENTER":0.6134,"MEAN_ANOMALY":359.5061,"EPHEMERIS_TYPE":0,"CLASSIFICATION_TYPE":"U","NORAD_CAT_ID":47692,"ELEMENT_SET_NO":999,"REV_AT_EPOCH":24714,"BSTAR":0.00060616098,"MEAN_MOTION_DOT":2.92e-6,"MEAN_MOTION_DDOT":0}]
